STARLINK-36407          
1 67612U 26018Z   26081.91668981  .00019397  00000+0  60169-3 0  9997
2 67612  97.2838 148.0253 0001448  78.6704  28.0516 15.33440456  6006
STARLINK-36597          
1 67613U 26018AA  26081.91668981  .00005726  00000+0  17490-3 0  9998
2 67613  97.2844 147.8908 0001720  91.3683  67.1002 15.34280176  5903
STARLINK-36548          
1 67617U 26020A   26081.91668981  .00055547  00000+0  19631-2 0  9999
2 67617  43.0003  65.4464 0000862 256.1133  60.9205 15.28401023  5895
STARLINK-36601          
1 67618U 26020B   26081.91668981  .00046449  00000+0  16891-2 0  9996
2 67618  43.0006  65.1838 0000604 294.1559 121.2052 15.27535695  5971
STARLINK-36119          
1 67619U 26020C   26081.91668981  .00058955  00000+0  21358-2 0  9996
2 67619  43.0004  65.3049 0000757 247.2812 125.5565 15.27565598  5898
STARLINK-36607          
1 67620U 26020D   26081.91668981 -.02307024  00000+0 -89409-1 0  9996
2 67620  43.0009  64.7260 0001165 263.0715 342.3079 15.29294992  5905
STARLINK-36615          
1 67621U 26020E   26081.66182180  .00033067  00000+0  12060-2 0  9990
2 67621  43.0068  66.8432 0000413 290.2164  69.8643 15.27575529  8097
STARLINK-36614          
1 67622U 26020F   26081.91668981  .00053133  00000+0  19283-2 0  9997
2 67622  43.0005  65.1623 0001598 255.9108 173.5625 15.27548788  5855
STARLINK-36600          
1 67623U 26020G   26081.91668981  .00043737  00000+0  15905-2 0  9994
2 67623  43.0000  65.2545 0001197 256.4351 137.6468 15.27558158  5898
STARLINK-36439          
1 67624U 26020H   26081.91668981  .00046582  00000+0  16503-2 0  9991
2 67624  43.0007  65.0423 0001196 275.5563 204.7474 15.28389711  6011
STARLINK-36438          
1 67625U 26020J   26081.91668981  .00056201  00000+0  19860-2 0  9990
2 67625  43.0006  65.1416 0001254 259.5697 178.8838 15.28399525  6018
STARLINK-36436          
1 67626U 26020K   26081.91668981  .00046961  00000+0  16637-2 0  9992
2 67626  43.0010  64.8494 0001689 274.0137 282.6369 15.28387686  5959
STARLINK-36502          
1 67627U 26020L   26081.91668981 -.01830752  00000+0 -55994-1 0  9993
2 67627  43.0001  65.0930 0001321 275.5438 185.3129 15.36479627  6029
STARLINK-36532          
1 67628U 26020M   26081.91668981  .00046491  00000+0  16467-2 0  9993
2 67628  43.0012  64.9199 0001001 272.9597 252.0873 15.28398581  6027
STARLINK-36367          
1 67629U 26020N   26081.91668981  .00051457  00000+0  18198-2 0  9995
2 67629  43.0012  64.9026 0001168 267.5119 266.8967 15.28409981  5901
STARLINK-36416          
1 67630U 26020P   26081.91668981  .00044534  00000+0  15777-2 0  9995
2 67630  43.0006  65.1089 0001156 235.8734 214.6181 15.28407865  6017
