[{"OBJECT_NAME":"STARLINK-36407","OBJECT_ID":"2026-018Z","EPOCH":"2026-03-22T22:00:01.999584","MEAN_MOTION":15.33440456,"ECCENTRICITY":0.00014485,"INCLINATION":97.2838,"RA_OF_ASC_NODE":148.0253,"ARG_OF_PERICENTER":78.6704,"MEAN_ANOMALY":28.0516,"EPHEMERIS_TYPE":0,"CLASSIFICATION_TYPE":"U","NORAD_CAT_ID":67612,"ELEMENT_SET_NO":999,"REV_AT_EPOCH":600,"BSTAR":0.00060169343,"MEAN_MOTION_DOT":0.00019397,"MEAN_MOTION_DDOT":0},{"OBJECT_NAME":"STARLINK-36597","OBJECT_ID":"2026-018AA","EPOCH":"2026-03-22T22:00:01.999584","MEAN_MOTION":15.34280176,"ECCENTRICITY":0.00017206,"INCLINATION":97.2844,"RA_OF_ASC_NODE":147.8908,"ARG_OF_PERICENTER":91.3683,"MEAN_ANOMALY":67.1002,"EPHEMERIS_TYPE":0,"CLASSIFICATION_TYPE":"U","NORAD_CAT_ID":67613,"ELEMENT_SET_NO":999,"REV_AT_EPOCH":590,"BSTAR":0.00017490078,"MEAN_MOTION_DOT":5.726e-5,"MEAN_MOTION_DDOT":0},{"OBJECT_NAME":"STARLINK-36548","OBJECT_ID":"2026-020A","EPOCH":"2026-03-22T22:00:01.999584","MEAN_MOTION":15.28401023,"ECCENTRICITY":8.62e-5,"INCLINATION":43.0003,"RA_OF_ASC_NODE":65.4464,"ARG_OF_PERICENTER":256.1133,"MEAN_ANOMALY":60.9205,"EPHEMERIS_TYPE":0,"CLASSIFICATION_TYPE":"U","NORAD_CAT_ID":67617,"ELEMENT_SET_NO":999,"REV_AT_EPOCH":589,"BSTAR":0.0019631193,"MEAN_MOTION_DOT":0.00055547,"MEAN_MOTION_DDOT":0},{"OBJECT_NAME":"STARLINK-36601","OBJECT_ID":"2026-020B","EPOCH":"2026-03-22T22:00:01.999584","MEAN_MOTION":15.27535695,"ECCENTRICITY":6.042e-5,"INCLINATION":43.0006,"RA_OF_ASC_NODE":65.1838,"ARG_OF_PERICENTER":294.1559,"MEAN_ANOMALY":121.2052,"EPHEMERIS_TYPE":0,"CLASSIFICATION_TYPE":"U","NORAD_CAT_ID":67618,"ELEMENT_SET_NO":999,"REV_AT_EPOCH":597,"BSTAR":0.0016891135,"MEAN_MOTION_DOT":0.00046449,"MEAN_MOTION_DDOT":0},{"OBJECT_NAME":"STARLINK-36119","OBJECT_ID":"2026-020C","EPOCH":"2026-03-22T22:00:01.999584","MEAN_MOTION":15.27565598,"ECCENTRICITY":7.576e-5,"INCLINATION":43.0004,"RA_OF_ASC_NODE":65.3049,"ARG_OF_PERICENTER":247.2812,"MEAN_ANOMALY":125.5565,"EPHEMERIS_TYPE":0,"CLASSIFICATION_TYPE":"U","NORAD_CAT_ID":67619,"ELEMENT_SET_NO":999,"REV_AT_EPOCH":589,"BSTAR":0.0021357797,"MEAN_MOTION_DOT":0.00058955,"MEAN_MOTION_DDOT":0},{"OBJECT_NAME":"STARLINK-36607","OBJECT_ID":"2026-020D","EPOCH":"2026-03-22T22:00:01.999584","MEAN_MOTION":15.29294992,"ECCENTRICITY":0.00011658,"INCLINATION":43.0009,"RA_OF_ASC_NODE":64.726,"ARG_OF_PERICENTER":263.0715,"MEAN_ANOMALY":342.3079,"EPHEMERIS_TYPE":0,"CLASSIFICATION_TYPE":"U","NORAD_CAT_ID":67620,"ELEMENT_SET_NO":999,"REV_AT_EPOCH":590,"BSTAR":-0.089408714,"MEAN_MOTION_DOT":-0.02307024,"MEAN_MOTION_DDOT":0},{"OBJECT_NAME":"STARLINK-36615","OBJECT_ID":"2026-020E","EPOCH":"2026-03-22T15:53:01.403520","MEAN_MOTION":15.27575529,"ECCENTRICITY":4.13e-5,"INCLINATION":43.0068,"RA_OF_ASC_NODE":66.8432,"ARG_OF_PERICENTER":290.2164,"MEAN_ANOMALY":69.8643,"EPHEMERIS_TYPE":0,"CLASSIFICATION_TYPE":"U","NORAD_CAT_ID":67621,"ELEMENT_SET_NO":999,"REV_AT_EPOCH":809,"BSTAR":0.0012059667,"MEAN_MOTION_DOT":0.00033067,"MEAN_MOTION_DDOT":0},{"OBJECT_NAME":"STARLINK-36614","OBJECT_ID":"2026-020F","EPOCH":"2026-03-22T22:00:01.999584","MEAN_MOTION":15.27548788,"ECCENTRICITY":0.00015988,"INCLINATION":43.0005,"RA_OF_ASC_NODE":65.1623,"ARG_OF_PERICENTER":255.9108,"MEAN_ANOMALY":173.5625,"EPHEMERIS_TYPE":0,"CLASSIFICATION_TYPE":"U","NORAD_CAT_ID":67622,"ELEMENT_SET_NO":999,"REV_AT_EPOCH":585,"BSTAR":0.0019283041,"MEAN_MOTION_DOT":0.00053133,"MEAN_MOTION_DDOT":0},{"OBJECT_NAME":"STARLINK-36600","OBJECT_ID":"2026-020G","EPOCH":"2026-03-22T22:00:01.999584","MEAN_MOTION":15.27558158,"ECCENTRICITY":0.00011977,"INCLINATION":43,"RA_OF_ASC_NODE":65.2545,"ARG_OF_PERICENTER":256.4351,"MEAN_ANOMALY":137.6468,"EPHEMERIS_TYPE":0,"CLASSIFICATION_TYPE":"U","NORAD_CAT_ID":67623,"ELEMENT_SET_NO":999,"REV_AT_EPOCH":589,"BSTAR":0.0015905483,"MEAN_MOTION_DOT":0.00043737,"MEAN_MOTION_DDOT":0},{"OBJECT_NAME":"STARLINK-36439","OBJECT_ID":"2026-020H","EPOCH":"2026-03-22T22:00:01.999584","MEAN_MOTION":15.28389711,"ECCENTRICITY":0.00011967,"INCLINATION":43.0007,"RA_OF_ASC_NODE":65.0423,"ARG_OF_PERICENTER":275.5563,"MEAN_ANOMALY":204.7474,"EPHEMERIS_TYPE":0,"CLASSIFICATION_TYPE":"U","NORAD_CAT_ID":67624,"ELEMENT_SET_NO":999,"REV_AT_EPOCH":601,"BSTAR":0.0016503322,"MEAN_MOTION_DOT":0.00046582,"MEAN_MOTION_DDOT":0},{"OBJECT_NAME":"STARLINK-36438","OBJECT_ID":"2026-020J","EPOCH":"2026-03-22T22:00:01.999584","MEAN_MOTION":15.28399525,"ECCENTRICITY":0.00012546,"INCLINATION":43.0006,"RA_OF_ASC_NODE":65.1416,"ARG_OF_PERICENTER":259.5697,"MEAN_ANOMALY":178.8838,"EPHEMERIS_TYPE":0,"CLASSIFICATION_TYPE":"U","NORAD_CAT_ID":67625,"ELEMENT_SET_NO":999,"REV_AT_EPOCH":601,"BSTAR":0.0019860358,"MEAN_MOTION_DOT":0.00056201,"MEAN_MOTION_DDOT":0},{"OBJECT_NAME":"STARLINK-36436","OBJECT_ID":"2026-020K","EPOCH":"2026-03-22T22:00:01.999584","MEAN_MOTION":15.28387686,"ECCENTRICITY":0.00016894,"INCLINATION":43.001,"RA_OF_ASC_NODE":64.8494,"ARG_OF_PERICENTER":274.0137,"MEAN_ANOMALY":282.6369,"EPHEMERIS_TYPE":0,"CLASSIFICATION_TYPE":"U","NORAD_CAT_ID":67626,"ELEMENT_SET_NO":999,"REV_AT_EPOCH":595,"BSTAR":0.0016636912,"MEAN_MOTION_DOT":0.00046961,"MEAN_MOTION_DDOT":0},{"OBJECT_NAME":"STARLINK-36502","OBJECT_ID":"2026-020L","EPOCH":"2026-03-22T22:00:01.999584","MEAN_MOTION":15.36479627,"ECCENTRICITY":0.00013212,"INCLINATION":43.0001,"RA_OF_ASC_NODE":65.093,"ARG_OF_PERICENTER":275.5438,"MEAN_ANOMALY":185.3129,"EPHEMERIS_TYPE":0,"CLASSIFICATION_TYPE":"U","NORAD_CAT_ID":67627,"ELEMENT_SET_NO":999,"REV_AT_EPOCH":602,"BSTAR":-0.055994143,"MEAN_MOTION_DOT":-0.01830752,"MEAN_MOTION_DDOT":0},{"OBJECT_NAME":"STARLINK-36532","OBJECT_ID":"2026-020M","EPOCH":"2026-03-22T22:00:01.999584","MEAN_MOTION":15.28398581,"ECCENTRICITY":0.00010017,"INCLINATION":43.0012,"RA_OF_ASC_NODE":64.9199,"ARG_OF_PERICENTER":272.9597,"MEAN_ANOMALY":252.0873,"EPHEMERIS_TYPE":0,"CLASSIFICATION_TYPE":"U","NORAD_CAT_ID":67628,"ELEMENT_SET_NO":999,"REV_AT_EPOCH":602,"BSTAR":0.0016467068,"MEAN_MOTION_DOT":0.00046491,"MEAN_MOTION_DDOT":0},{"OBJECT_NAME":"STARLINK-36367","OBJECT_ID":"2026-020N","EPOCH":"2026-03-22T22:00:01.999584","MEAN_MOTION":15.28409981,"ECCENTRICITY":0.0001168,"INCLINATION":43.0012,"RA_OF_ASC_NODE":64.9026,"ARG_OF_PERICENTER":267.5119,"MEAN_ANOMALY":266.8967,"EPHEMERIS_TYPE":0,"CLASSIFICATION_TYPE":"U","NORAD_CAT_ID":67629,"ELEMENT_SET_NO":999,"REV_AT_EPOCH":590,"BSTAR":0.0018197722,"MEAN_MOTION_DOT":0.00051457,"MEAN_MOTION_DDOT":0},{"OBJECT_NAME":"STARLINK-36416","OBJECT_ID":"2026-020P","EPOCH":"2026-03-22T22:00:01.999584","MEAN_MOTION":15.28407865,"ECCENTRICITY":0.00011563,"INCLINATION":43.0006,"RA_OF_ASC_NODE":65.1089,"ARG_OF_PERICENTER":235.8734,"MEAN_ANOMALY":214.6181,"EPHEMERIS_TYPE":0,"CLASSIFICATION_TYPE":"U","NORAD_CAT_ID":67630,"ELEMENT_SET_NO":999,"REV_AT_EPOCH":601,"BSTAR":0.0015777441,"MEAN_MOTION_DOT":0.00044534,"MEAN_MOTION_DDOT":0}]
